[{"OBJECT_NAME":"ONEWEB-0440","OBJECT_ID":"2021-132AL","EPOCH":"2026-03-09T17:18:21.508992","MEAN_MOTION":13.18686204,"ECCENTRICITY":0.00015537,"INCLINATION":87.9253,"RA_OF_ASC_NODE":355.2047,"ARG_OF_PERICENTER":88.5982,"MEAN_ANOMALY":271.5328,"EPHEMERIS_TYPE":0,"CLASSIFICATION_TYPE":"U","NORAD_CAT_ID":50503,"ELEMENT_SET_NO":999,"REV_AT_EPOCH":20846,"BSTAR":-0.0001846939,"MEAN_MOTION_DOT":-6.0e-7,"MEAN_MOTION_DDOT":0},{"OBJECT_NAME":"SL-14 R\/B","OBJECT_ID":"1991-030B","EPOCH":"2026-03-09T23:08:52.984896","MEAN_MOTION":13.16387207,"ECCENTRICITY":0.00179224,"INCLINATION":82.5424,"RA_OF_ASC_NODE":263.3451,"ARG_OF_PERICENTER":73.7708,"MEAN_ANOMALY":36.9534,"EPHEMERIS_TYPE":0,"CLASSIFICATION_TYPE":"U","NORAD_CAT_ID":21233,"ELEMENT_SET_NO":999,"REV_AT_EPOCH":67569,"BSTAR":-0.00043656849,"MEAN_MOTION_DOT":-1.54e-6,"MEAN_MOTION_DDOT":0}]
